HULIANWANG DIGUI-52     
1 65109U 25168D   25234.91449050 -.00000058  00000+0  63569-4 0  9997
2 65109  50.0059 343.4509 0008794 292.2816  67.7154 13.98187075  2582
HULIANWANG DIGUI-53     
1 65110U 25168E   25234.91318438 -.00000030  00000+0  83225-4 0  9995
2 65110  50.0065 343.4472 0008099 288.5684  71.4338 13.98240116  2581
HULIANWANG DIGUI-54     
1 65111U 25168F   25234.91227983  .00000033  00000+0  12696-3 0  9995
2 65111  50.0012 343.4223 0007925 292.5650  67.4413 13.98327204  2586
HULIANWANG DIGUI-55     
1 65112U 25168G   25234.91200748 -.00000056  00000+0  64628-4 0  9995
2 65112  50.0021 343.4233 0008494 280.6242  79.3704 13.98357936  2585
HULIANWANG DIGUI-56     
1 65113U 25168H   25234.91019788 -.00000014  00000+0  94025-4 0  9996
2 65113  50.0017 343.4112 0007617 282.0633  77.9415 13.98491101  2589
HULIANWANG DIGUI-57     
1 65114U 25168J   25234.90864783 -.00000011  00000+0  95888-4 0  9994
2 65114  50.0041 343.4126 0006773 289.0059  71.0109 13.98652571  2599
CZ-12 R/B               
1 65115U 25168K   25234.53686133 -.00000053  00000+0  49990-4 0  9994
2 65115  49.9850 342.7580 0076657 177.9026 182.2219 14.16454945  2579
QPS-SAR-12 (KUSHINADA-I)
1 65116U 25169A   25234.94640650  .00003625  00000+0  32623-3 0  9996
2 65116  42.0110 213.8342 0005060  22.4343 337.6702 14.96861541  2657
ELECTRON KICK STAGE R/B 
1 65117U 25169B   25234.87403825  .00003929  00000+0  34801-3 0  9997
2 65117  42.0108 214.1569 0006353  22.3431 337.7670 14.97340610  2647
ELECTRON R/B            
1 65118U 25169C   25234.95239237  .00837710  75717-5  14696-2 0  9996
2 65118  42.0225 203.2881 0190070  20.6599 340.1812 15.75991612  2782
GEESAT-4 A              
1 65119U 25170A   25235.03388705  .00001601  00000+0  20523-3 0  9990
2 65119  49.9872 118.3652 0014612 347.3029  12.7541 14.86457013  2147
GEESAT-4 B              
1 65120U 25170B   25234.95616006  .00001773  00000+0  22548-3 0  9999
2 65120  49.9837 118.6157 0008803  20.3973 339.7316 14.86267350  2150
GEESAT-4 C              
1 65121U 25170C   25234.94427414  .00002286  00000+0  25377-3 0  9995
2 65121  49.9875 118.5424 0012463 345.6745  14.3841 14.90835716  2124
GEESAT-4 D              
1 65122U 25170D   25234.94350713  .00002307  00000+0  25524-3 0  9991
2 65122  49.9831 118.5330 0013679 355.3673   4.7140 14.90923038  2121
GEESAT-4 E              
1 65123U 25170E   25234.96368466  .00001784  00000+0  22626-3 0  9996
2 65123  49.9912 118.6604 0021016 342.2422  17.7781 14.86281106  2121
GEESAT-4 F              
1 65124U 25170F   25232.93384851 -.00000920  00000+0 -68340-4 0  9995
2 65124  49.9860 127.9665 0013565 348.4688  11.5940 14.90508941  1825
GEESAT-4 G              
1 65125U 25170G   25234.94205611  .00002268  00000+0  25046-3 0  9995
2 65125  49.9894 118.5298 0014178 351.7249   8.3456 14.91076393  2124
GEESAT-4 H              
1 65126U 25170H   25234.94143255  .00002351  00000+0  25825-3 0  9999
2 65126  49.9820 118.5190 0014091 356.9408   3.1445 14.91139784  2128
GEESAT-4 J              
1 65127U 25170J   25234.94109990  .00002325  00000+0  25551-3 0  9995
2 65127  49.9882 118.5223 0014257 352.2437   7.8282 14.91177071  2120
GEESAT-4 K              
1 65128U 25170K   25233.93546917  .00002366  00000+0  25924-3 0  9997
2 65128  49.9841 123.2301 0014138 349.6123  10.4524 14.91218660  1977
GEESAT-4 L              
1 65129U 25170L   25234.94045660  .00002289  00000+0  25143-3 0  9996
2 65129  49.9864 118.5169 0015685 355.5310   4.5489 14.91245683  2121
KUIPER-00081            
1 65132U 25171A   25234.51814970  .00020110  00000+0  57912-3 0  9994
2 65132  51.8790 351.6413 0005867 158.9485 201.1743 15.35725041  2944
KUIPER-00088            
1 65133U 25171B   25234.58373786  .00023470  00000+0  67523-3 0  9998
2 65133  51.8793 351.3331 0005583 161.1593 198.9601 15.35657954  2959
KUIPER-00095            
1 65134U 25171C   25234.58784432  .00011895  00000+0  35436-3 0  9999
2 65134  51.8787 351.3561 0005065 186.6043 173.4877 15.35099065  2951
KUIPER-00096            
1 65135U 25171D   25234.58619713  .00012317  00000+0  36383-3 0  9991
2 65135  51.8785 351.3439 0005042 175.6059 184.4972 15.35332007  2958
KUIPER-00097            
1 65136U 25171E   25234.58832118  .00012700  00000+0  37833-3 0  9995
2 65136  51.8787 351.3593 0005090 190.0854 170.0031 15.35033520  2943
KUIPER-00098            
1 65137U 25171F   25234.51792752  .00017036  00000+0  49199-3 0  9993
2 65137  51.8789 351.6394 0006059 158.7924 201.3315 15.35754591  2281
KUIPER-00099            
1 65138U 25171G   25234.51927747  .00017901  00000+0  51926-3 0  9990
2 65138  51.8792 351.6500 0005818 164.5474 195.5690 15.35578467  2930
KUIPER-00100            
1 65139U 25171H   25234.78086454  .00019848  00000+0  57748-3 0  9991
2 65139  51.8782 350.3977 0005403 172.5842 187.5225 15.35413804  2974
KUIPER-00102            
1 65140U 25171J   25234.58770013  .00012160  00000+0  36222-3 0  9996
2 65140  51.8784 351.3534 0004934 182.4509 177.6454 15.35081375  2941
KUIPER-00103            
1 65141U 25171K   25234.58664148  .00019527  00000+0  57093-3 0  9991
2 65141  51.8784 351.3465 0004976 178.9494 181.1503 15.35271653  2949
KUIPER-00104            
1 65142U 25171L   25234.58592618  .00020648  00000+0  60104-3 0  9997
2 65142  51.8798 351.3487 0004976 173.0373 187.0683 15.35373811  2944
KUIPER-00105            
1 65143U 25171M   25234.51763786  .00018213  00000+0  52439-3 0  9994
2 65143  51.8788 351.6376 0006222 158.5639 201.5609 15.35798968  2947
KUIPER-00106            
1 65144U 25171N   25234.58510933  .00012657  00000+0  37190-3 0  9999
2 65144  51.8786 351.3366 0005571 168.7973 191.3139 15.35470502  2958
KUIPER-00107            
1 65145U 25171P   25234.58536027  .00011386  00000+0  33610-3 0  9993
2 65145  51.8796 351.3448 0005540 169.8488 190.2611 15.35433060  2951
KUIPER-00108            
1 65146U 25171Q   25234.58754261  .00021106  00000+0  62016-3 0  9999
2 65146  51.8799 351.3578 0005751 184.7524 175.3408 15.35060761  2952
KUIPER-00109            
1 65147U 25171R   25234.58378056  .00011607  00000+0  34094-3 0  9994
2 65147  51.8789 351.3291 0005678 165.1375 194.9779 15.35568513  2944
KUIPER-00110            
1 65148U 25171S   25234.58484646  .00012729  00000+0  37349-3 0  9990
2 65148  51.8794 351.3409 0005593 166.7181 193.3953 15.35509524  2944
KUIPER-00111            
1 65149U 25171T   25234.58673224  .00013778  00000+0  40686-3 0  9996
2 65149  51.8798 351.3530 0005006 181.9797 178.1170 15.35235558  2940
KUIPER-00112            
1 65150U 25171U   25234.58865519  .00013053  00000+0  38888-3 0  9995
2 65150  51.8796 351.3642 0005575 194.1991 165.8839 15.35002880  2942
KUIPER-00114            
1 65151U 25171V   25234.58751869  .00023964  00000+0  70181-3 0  9992
2 65151  51.8793 351.3550 0005598 186.6706 173.4207 15.35085799  2947
KUIPER-00115            
1 65152U 25171W   25234.58465637  .00007321  00000+0  21982-3 0  9992
2 65152  51.8788 351.3337 0005653 163.8742 196.2424 15.35481330  2949
KUIPER-00116            
1 65153U 25171X   25234.32625872  .00022721  00000+0  66282-3 0  9997
2 65153  51.8799 352.6071 0005678 181.8528 178.2438 15.35241287  2906
KUIPER-00118            
1 65154U 25171Y   25234.58806990  .00013311  00000+0  39549-3 0  9999
2 65154  51.8794 351.3601 0005026 188.9196 171.1701 15.35072112  2941
KUIPER-00119            
1 65155U 25171Z   25234.51818994  .00019400  00000+0  55982-3 0  9994
2 65155  51.8789 351.6393 0006037 164.6222 195.4948 15.35684798  2931
METOP-SGA1              
1 65159U 25172A   25234.93481640  .00000028  00000+0  31540-4 0  9990
2 65159  98.7072 294.2253 0007027 335.3549  24.7293 14.23704642  1401
HULIANWANG DIGUI 8A     
1 65164U 25174A   25234.87078602  .00000083  00000+0  12159-3 0  9996
2 65164  86.5038 352.8672 0008654 265.9387  94.0767 13.41121647  1284
HULIANWANG DIGUI 8B     
1 65165U 25174B   25234.94605529  .00000015  00000+0 -11828-5 0  9999
2 65165  86.4999 352.8390 0009536 263.1158  96.8901 13.40831191  1295
HULIANWANG DIGUI 8C     
1 65166U 25174C   25234.49864514  .00000064  00000+0  87754-4 0  9994
2 65166  86.5032 352.9978 0008984 266.6286  93.3830 13.40875720  1237
HULIANWANG DIGUI 8D     
1 65167U 25174D   25234.79773410  .00000118  00000+0  18843-3 0  9994
2 65167  86.5042 352.8946 0010256 266.8771  93.1199 13.40404396  1276
HULIANWANG DIGUI 8E     
1 65168U 25174E   25234.79882214  .00000015  00000+0 -49373-6 0  9990
2 65168  86.4980 352.8894 0009101 271.4405  88.5696 13.40105418  1275
HULIANWANG DIGUI 8F     
1 65169U 25174F   25234.79936282  .00000025  00000+0  18881-4 0  9994
2 65169  86.5034 352.8932 0009644 274.0812  85.9228 13.39944636  1276
HULIANWANG DIGUI 8G     
1 65170U 25174G   25234.87439393  .00000120  00000+0  19438-3 0  9990
2 65170  86.4970 352.8631 0010558 276.8413  83.1529 13.39654367  1289
HULIANWANG DIGUI 8H     
1 65171U 25174H   25233.53102730 -.00000006  00000+0 -38793-4 0  9996
2 65171  86.4952 353.3280 0010319 280.5185  79.4796 13.40673396  1109
HULIANWANG DIGUI 8J     
1 65172U 25174J   25234.87498046  .00000083  00000+0  12565-3 0  9994
2 65172  86.4990 352.8671 0011246 270.7837  89.2017 13.39476831  1282
HULIANWANG DIGUI 8K     
1 65173U 25174K   25233.83061096 -.00001225  00000+0 -22813-2 0  9998
2 65173  86.4985 353.2307 0011322 280.1267  79.8598 13.39954592  1111
STARLINK-34956          
1 65174U 25175A   25234.91670139 -.01620289  00000+0 -64141-2 0  9992
2 65174  97.6010 104.8055 0001522  78.0700  73.7251 15.89323354  2553
STARLINK-34949          
1 65175U 25175B   25234.91670139 -.01837114  90556-3 -64322-2 0  9990
2 65175  97.6011 104.8063 0001508  79.8056  73.7543 15.89359979  2456
STARLINK-34707          
1 65176U 25175C   25234.91670139 -.01853126  92083-3 -64711-2 0  9991
2 65176  97.6013 104.8068 0001528  84.9945  70.2545 15.89414933  2614
